DELTA 2 R/B             
1 25876U 99041E   26064.76054674  .00001708  00000+0  31258-3 0  9995
2 25876  51.7640 316.9739 0502363 336.8392  21.0590 14.11825663362470
HELIOS 1B               
1 25977U 99064A   26064.67829742  .00003067  00000+0  34317-3 0  9997
2 25977  98.1698 326.8039 0002507  80.2123 279.9376 14.87680091684661
TERRA                   
1 25994U 99068A   26064.81232806  .00000633  00000+0  13820-3 0  9997
2 25994  97.9601 118.3950 0002463 160.7752 264.6855 14.61010123394510
SL-16 R/B               
1 26070U 00006B   26064.56143884  .00000128  00000+0  89070-4 0  9996
2 26070  71.0012 106.5183 0017079 195.9469 164.1119 14.15825328347971
TITAN 4B R/B            
1 26474U 00047B   26064.85353332  .00005818  00000+0  36392-3 0  9991
2 26474  67.9892  51.2965 0038228  39.9288 320.4661 15.09517129392338
ENVISAT                 
1 27386U 02009A   26064.84712542  .00000197  00000+0  77814-4 0  9995
2 27386  98.3722  18.5361 0001332  84.3208 283.9722 14.39035320258623
IDEFIX & ARIANE 42P R/B 
1 27422U 02021B   26064.72018144  .00000417  00000+0  17513-3 0  9998
2 27422  98.5866   3.3740 0011343 194.0725 166.0144 14.31022919243450
AQUA                    
1 27424U 02022A   26064.84422689  .00001549  00000+0  31910-3 0  9991
2 27424  98.4169  32.1392 0000604  63.3883 317.6242 14.61966367268177
CZ-4B R/B               
1 27432U 02024C   26064.76753015  .00000073  00000+0  60568-4 0  9996
2 27432  98.8846 118.1938 0050668  35.2596  74.8182 14.14546933228685
MIDORI II (ADEOS-II)    
1 27597U 02056A   26064.81343153  .00000443  00000+0  19193-3 0  9995
2 27597  98.7764  23.2644 0001740  48.1718 311.9612 14.29281648209745
H-2A R/B                
1 27601U 02056E   26064.86781072  .00000386  00000+0  14985-3 0  9992
2 27601  98.3197  25.3790 0070270 172.0112 242.7391 14.33757912213568
CZ-4B R/B               
1 28059U 03049C   26064.60128381  .00000578  00000+0  14424-3 0  9994
2 28059  98.6876  59.3457 0047109 243.6440 115.9914 14.55015808186009
CZ-2C R/B               
1 28222U 04012C   26064.70687254  .00060471  00000+0  63753-3 0  9994
2 28222  97.7239 129.6237 0013260 325.7396  34.3005 15.63957569203659
SL-16 R/B               
1 28353U 04021B   26064.70924822 -.00000193  00000+0 -75750-4 0  9992
2 28353  70.9992 240.8460 0003813  17.1566 342.9684 14.14599191122278
CZ-4B R/B               
1 28415U 04035C   26064.65541867  .00009952  00000+0  35106-3 0  9994
2 28415  97.3499  98.9460 0031407 346.2281  13.8099 15.28976588179297
CZ-2C R/B               
1 28480U 04046B   26064.69914945  .00000160  00000+0  74447-4 0  9997
2 28480  98.1986 339.9313 0139651 166.2060 194.3000 14.26990485107937
ARIANE 5 R/B            
1 28499U 04049H   26064.45582592  .00001132  00000+0  13087-3 0  9995
2 28499  98.2618 232.7545 0084239   5.6646 354.5500 14.85257082145160
